STARLINK-34832          
1 65475U 25195T   26068.83302601  .00024772  00000+0  84604-3 0  9990
2 65475  53.1585 257.6585 0000943 102.5697 257.5409 15.30188082 29997
GLOBAL-34               
1 68098U 26043A   26068.47466435  .00014018  00000+0  45822-3 0  9994
2 68098  42.0215  76.7399 0006884 289.2632  70.7460 15.31488019   538
